{
  "57247": {
    "noradId": "57247",
    "tle": [
      "1 57247C 23094AF  25274.11576389  .00021114  00000+0  15578-2 0  2745",
      "2 57247  43.0019 164.7221 0001391 267.2428  41.0732 15.02517996    15"
    ]
  },
  "57248": {
    "noradId": "57248",
    "tle": [
      "1 57248C 23094AG  25274.11437500  .00007983  00000+0  58910-3 0  2743",
      "2 57248  43.0016 164.6875 0001334 278.2321  40.5992 15.02522539    19"
    ]
  },
  "57249": {
    "noradId": "57249",
    "tle": [
      "1 57249C 23094AH  25274.12479167 -.00000052  00000+0 -38127-5 0  2742",
      "2 57249  43.0017 164.5442 0001402 259.6539 127.6442 15.02531149    14"
    ]
  },
  "57250": {
    "noradId": "57250",
    "tle": [
      "1 57250C 23094AJ  25274.11437500  .00000129  00000+0  95560-5 0  2745",
      "2 57250  43.0021 164.5289 0001580 257.1536 127.8050 15.02528399    17"
    ]
  },
  "57251": {
    "noradId": "57251",
    "tle": [
      "1 57251C 23094AK  25274.11506944 -.00002446  00000+0 -18052-3 0  2740",
      "2 57251  43.0021 164.6117 0001447 253.9653  98.6780 15.02533509    19"
    ]
  },
  "57252": {
    "noradId": "57252",
    "tle": [
      "1 57252C 23094AL  25274.12062500 -.00013634  00000+0 -10062-2 0  2740",
      "2 57252  43.0017 164.3946 0001454 250.2747 210.6148 15.02541695    13"
    ]
  },
  "57253": {
    "noradId": "57253",
    "tle": [
      "1 57253C 23094AM  25274.11437500  .00019752  00000+0  14577-2 0  2746",
      "2 57253  43.0017 164.6008 0001506 256.1894  98.7055 15.02509400    12"
    ]
  },
  "57254": {
    "noradId": "57254",
    "tle": [
      "1 57254C 23094AN  25274.12618056 -.00006928  00000+0 -51128-3 0  2742",
      "2 57254  43.0016 164.2922 0001531 269.6903 251.2986 15.02537823    10"
    ]
  },
  "57255": {
    "noradId": "57255",
    "tle": [
      "1 57255C 23094AP  25274.11715278  .00022121  00000+0  16322-2 0  2743",
      "2 57255  43.0018 164.3699 0001316 266.7127 193.3866 15.02515395    15"
    ]
  },
  "57256": {
    "noradId": "57256",
    "tle": [
      "1 57256C 23094AQ  25274.12062500  .00004987  00000+0  36801-3 0  2743",
      "2 57256  43.0017 164.1116 0001374 273.6004 313.4837 15.02522865    15"
    ]
  },
  "57257": {
    "noradId": "57257",
    "tle": [
      "1 57257C 23094AR  25274.11784722 -.00009139  00000+0 -67441-3 0  2740",
      "2 57257  43.0016 164.4531 0001391 273.5563 154.2410 15.02538479    13"
    ]
  },
  "57258": {
    "noradId": "57258",
    "tle": [
      "1 57258C 23094AS  25274.11854167  .00023108  00000+0  17052-2 0  2744",
      "2 57258  43.0016 164.2903 0001328 257.9832 239.6851 15.02509686    15"
    ]
  },
  "57260": {
    "noradId": "57260",
    "tle": [
      "1 57260C 23094AU  25274.12201389 -.00015877  00000+0 -11715-2 0  2746",
      "2 57260  43.0015 164.1844 0001336 261.8433 290.6674 15.02551544    10"
    ]
  },
  "57261": {
    "noradId": "57261",
    "tle": [
      "1 57261C 23094AV  25274.11437500 -.00000746  00000+0 -55029-4 0  2749",
      "2 57261  43.0017 177.2307 0001499 275.3931 237.1694 15.02528808    10"
    ]
  },
  "57262": {
    "noradId": "57262",
    "tle": [
      "1 57262C 23094AW  25274.11506944 -.00002254  00000+0 -16634-3 0  2743",
      "2 57262  43.0017 164.3383 0001422 269.9939 196.8369 15.02536199    17"
    ]
  },
  "57263": {
    "noradId": "57263",
    "tle": [
      "1 57263C 23094AX  25274.11437500  .00015971  00000+0  11786-2 0  2745",
      "2 57263  43.0017 177.2156 0001565 262.3050 256.2904 15.02513901    10"
    ]
  },
  "57264": {
    "noradId": "57264",
    "tle": [
      "1 57264C 23094AY  25274.11923611 -.00009854  00000+0 -72722-3 0  2742",
      "2 57264  43.0015 164.1422 0001349 260.5441 300.9919 15.02538860    18"
    ]
  },
  "57265": {
    "noradId": "57265",
    "tle": [
      "1 57265C 23094AZ  25274.11645833  .00024355  00000+0  17968-2 0  2741",
      "2 57265  43.0017 164.1302 0001309 273.6496 284.8522 15.02517923    16"
    ]
  },
  "57290": {
    "noradId": "57290",
    "tle": [
      "1 57290C 23096A   25274.09493056  .00010254  00000+0  75709-3 0  2747",
      "2 57290  43.0039  10.7438 0001091 267.2826 168.1365 15.02502174    19"
    ]
  },
  "57291": {
    "noradId": "57291",
    "tle": [
      "1 57291C 23096B   25274.09562500  .00026567  00000+0  19606-2 0  2746",
      "2 57291  43.0035  10.6968 0001616 265.6471 191.4709 15.02502697    15"
    ]
  },
  "57292": {
    "noradId": "57292",
    "tle": [
      "1 57292C 23096C   25274.11020833  .00174570  00000+0  71702-2 0  2741",
      "2 57292  42.9965 354.2062 0023448   7.4845 284.0160 15.22971148    15"
    ]
  },
  "57294": {
    "noradId": "57294",
    "tle": [
      "1 57294C 23096E   25274.09631944 -.00001258  00000+0 -92875-4 0  2741",
      "2 57294  43.0037  10.5629 0001425 265.5686 249.5120 15.02516402    19"
    ]
  },
  "57296": {
    "noradId": "57296",
    "tle": [
      "1 57296C 23096G   25274.11020833  .00178840  00000+0  73256-2 0  2745",
      "2 57296  42.9962 353.6326 0021788   9.3159 170.0860 15.23092379    18"
    ]
  },
  "57297": {
    "noradId": "57297",
    "tle": [
      "1 57297C 23096H   25274.11020833  .00773650  00000+0  10281-1 0  2744",
      "2 57297  42.9876 320.7492 0034458  54.5015 293.3534 15.55803848    16"
    ]
  },
  "57298": {
    "noradId": "57298",
    "tle": [
      "1 57298C 23096J   25274.11020833  .00201440  00000+0  75150-2 0  2745",
      "2 57298  42.9954 349.6900 0022482  16.8990   9.0057 15.26162124    10"
    ]
  },
  "57300": {
    "noradId": "57300",
    "tle": [
      "1 57300C 23096L   25274.09631944  .00001870  00000+0  13799-3 0  2744",
      "2 57300  43.0041  10.3860 0001346 251.6709 335.5240 15.02523552    14"
    ]
  },
  "57301": {
    "noradId": "57301",
    "tle": [
      "1 57301C 23096M   25274.09979167 -.00007311  00000+0 -53975-3 0  2745",
      "2 57301  43.0037  10.3278 0001376 261.1149   2.9222 15.02524418    17"
    ]
  },
  "57302": {
    "noradId": "57302",
    "tle": [
      "1 57302C 23096N   25274.09284722  .00030957  00000+0  22834-2 0  2741",
      "2 57302  43.0037  10.3006 0001162 268.6089 335.7574 15.02517098    18"
    ]
  },
  "57303": {
    "noradId": "57303",
    "tle": [
      "1 57303C 23096P   25274.11020833  .00174560  00000+0  72464-2 0  2749",
      "2 57303  42.9969 353.8252 0021223  10.9605  86.5353 15.22659913    12"
    ]
  },
  "57305": {
    "noradId": "57305",
    "tle": [
      "1 57305C 23096R   25274.11020833  .00181220  00000+0  73569-2 0  2749",
      "2 57305  42.9974 353.0260 0021730   9.4662  59.3204 15.23392324    14"
    ]
  },
  "57306": {
    "noradId": "57306",
    "tle": [
      "1 57306C 23096S   25274.11020833  .00192570  00000+0  72744-2 0  2744",
      "2 57306  42.9941 349.9625 0022132  17.3181 265.3069 15.25766047    16"
    ]
  },
  "57307": {
    "noradId": "57307",
    "tle": [
      "1 57307C 23096T   25274.11020833  .00178810  00000+0  73433-2 0  2742",
      "2 57307  42.9967 353.2967 0021064  12.6502 297.8300 15.23020946    17"
    ]
  },
  "57309": {
    "noradId": "57309",
    "tle": [
      "1 57309C 23096V   25274.10256944  .00396480  00000+0  88940-2 0  2741",
      "2 57309  42.9952 332.0627 0029462  36.3625 214.5436 15.41675731    14"
    ]
  },
  "57310": {
    "noradId": "57310",
    "tle": [
      "1 57310C 23096W   25274.09423611 -.00007277  00000+0 -53701-3 0  2741",
      "2 57310  43.0037 344.3298 0001351 261.4328  41.7125 15.02535302    11"
    ]
  },
  "57311": {
    "noradId": "57311",
    "tle": [
      "1 57311C 23096X   25274.10465278  .00172700  00000+0  71567-2 0  2740",
      "2 57311  42.9966 353.4922 0021542   9.5745 207.6074 15.22714951    11"
    ]
  },
  "57328": {
    "noradId": "57328",
    "tle": [
      "1 57328C 23099A   25274.09631944  .00015547  00000+0  11473-2 0  2749",
      "2 57328  43.0042  36.4982 0001643 264.9990 168.8142 15.02515901    15"
    ]
  },
  "57329": {
    "noradId": "57329",
    "tle": [
      "1 57329C 23099B   25274.11576389 -.00035460  00000+0 -26130-2 0  2748",
      "2 57329  43.0032  36.2593 0000457 268.7722 324.3680 15.02621628    18"
    ]
  },
  "57330": {
    "noradId": "57330",
    "tle": [
      "1 57330C 23099C   25274.11993056  .00008968  00000+0  66188-3 0  2743",
      "2 57330  43.0042  36.3269 0001425 269.0875 310.6787 15.02517506    16"
    ]
  },
  "57331": {
    "noradId": "57331",
    "tle": [
      "1 57331C 23099D   25274.11437500 -.00002722  00000+0 -20089-3 0  2745",
      "2 57331  43.0042  36.3425 0001538 269.4632 286.2480 15.02523127    15"
    ]
  },
  "57332": {
    "noradId": "57332",
    "tle": [
      "1 57332C 23099E   25274.11854167  .00018494  00000+0  13659-2 0  2743",
      "2 57332  43.0039  36.2870 0001323 258.5173 331.7458 15.02482968    14"
    ]
  },
  "57333": {
    "noradId": "57333",
    "tle": [
      "1 57333C 23099F   25274.12131944  .00035264  00000+0  26049-2 0  2747",
      "2 57333  43.0039  36.2592 0001075 260.3823 350.9121 15.02458960    18"
    ]
  },
  "57334": {
    "noradId": "57334",
    "tle": [
      "1 57334C 23099G   25274.11645833 -.00004654  00000+0 -34336-3 0  2744",
      "2 57334  43.0031  36.2113 0001343 273.4109 341.6348 15.02544251    17"
    ]
  },
  "57335": {
    "noradId": "57335",
    "tle": [
      "1 57335C 23099H   25274.11923611  .00010306  00000+0  76053-3 0  2749",
      "2 57335  43.0034  36.0587 0001392 261.4873  68.6958 15.02521408    15"
    ]
  },
  "57336": {
    "noradId": "57336",
    "tle": [
      "1 57336C 23099J   25274.11923611 -.00001974  00000+0 -14565-3 0  2743",
      "2 57336  43.0034  35.6520 0001403 263.2939 229.2050 15.02532590    16"
    ]
  },
  "57337": {
    "noradId": "57337",
    "tle": [
      "1 57337C 23099K   25274.11298611 -.00000385  00000+0 -28403-4 0  2741",
      "2 57337  43.0037  36.1879 0001419 266.9546 347.3293 15.02526786    15"
    ]
  }
}